[{"OBJECT_NAME":"PVSAT","OBJECT_ID":"2022-065A","EPOCH":"2026-03-09T22:13:19.822368","MEAN_MOTION":14.59473135,"ECCENTRICITY":0.00086294,"INCLINATION":98.2105,"RA_OF_ASC_NODE":209.2483,"ARG_OF_PERICENTER":334.1406,"MEAN_ANOMALY":25.9362,"EPHEMERIS_TYPE":0,"CLASSIFICATION_TYPE":"U","NORAD_CAT_ID":52894,"ELEMENT_SET_NO":999,"REV_AT_EPOCH":19787,"BSTAR":0.00011222331,"MEAN_MOTION_DOT":4.86e-6,"MEAN_MOTION_DDOT":0},{"OBJECT_NAME":"PEGASUS DEB","OBJECT_ID":"1994-029ACN","EPOCH":"2026-03-09T14:54:52.276896","MEAN_MOTION":14.88956192,"ECCENTRICITY":0.0150975,"INCLINATION":81.572,"RA_OF_ASC_NODE":286.6806,"ARG_OF_PERICENTER":308.5515,"MEAN_ANOMALY":50.2248,"EPHEMERIS_TYPE":0,"CLASSIFICATION_TYPE":"U","NORAD_CAT_ID":24980,"ELEMENT_SET_NO":999,"REV_AT_EPOCH":53329,"BSTAR":0.0016647,"MEAN_MOTION_DOT":0.00019427,"MEAN_MOTION_DDOT":0}]
